{
  "type": "FeatureCollection",
  "features": [
    {
      "type": "Feature",
      "properties": {
        "norad_id": 30022,
        "name": "FENGYUN 1C DEB",
        "group": "fengyun-1c-debris",
        "lat": 9.322917583840901,
        "lon": 7.157333359374703,
        "alt_km": 843.4709340998079,
        "timestamp": "2025-12-03T19:33:07.249349+00:00",
        "meta_object_name": "FENGYUN 1C DEB",
        "meta_object_id": "1999-025MX",
        "meta_epoch": "2025-12-03T04:08:19.132224",
        "meta_mean_motion": 14.23126605,
        "meta_eccentricity": 0.00666984,
        "meta_inclination": 99.0729,
        "meta_ra_of_asc_node": 184.9926,
        "meta_arg_of_pericenter": 296.9237,
        "meta_mean_anomaly": 185.714,
        "meta_ephemeris_type": 0,
        "meta_classification_type": "U",
        "meta_norad_cat_id": 30022,
        "meta_element_set_no": 999,
        "meta_rev_at_epoch": 98056,
        "meta_bstar": 0.00010454689,
        "meta_mean_motion_dot": 1.94e-06,
        "meta_mean_motion_ddot": 0,
        "tle_line1": "1 30022U 99025MX  25337.17244366  .00000194  00000+0  10455-3 0  9996",
        "tle_line2": "2 30022  99.0729 184.9926 0066698 296.9237 185.7140 14.23126605980561"
      },
      "geometry": {
        "type": "Point",
        "coordinates": [
          7.157333359374703,
          9.322917583840901
        ]
      }
    },
    {
      "type": "Feature",
      "properties": {
        "norad_id": 30023,
        "name": "FENGYUN 1C DEB",
        "group": "fengyun-1c-debris",
        "lat": 74.13345346189497,
        "lon": 26.234726452416083,
        "alt_km": 812.9396142077694,
        "timestamp": "2025-12-03T19:33:07.249359+00:00",
        "meta_object_name": "FENGYUN 1C DEB",
        "meta_object_id": "1999-025MY",
        "meta_epoch": "2025-12-03T12:31:24.498048",
        "meta_mean_motion": 14.11841191,
        "meta_eccentricity": 0.0047177,
        "meta_inclination": 99.2943,
        "meta_ra_of_asc_node": 170.7511,
        "meta_arg_of_pericenter": 88.9807,
        "meta_mean_anomaly": 326.1105,
        "meta_ephemeris_type": 0,
        "meta_classification_type": "U",
        "meta_norad_cat_id": 30023,
        "meta_element_set_no": 999,
        "meta_rev_at_epoch": 97066,
        "meta_bstar": 0.00055233,
        "meta_mean_motion_dot": 9.71e-06,
        "meta_mean_motion_ddot": 0,
        "tle_line1": "1 30023U 99025MY  25337.52181132  .00000971  00000+0  55233-3 0  9993",
        "tle_line2": "2 30023  99.2943 170.7511 0047177  88.9807 326.1105 14.11841191970661"
      },
      "geometry": {
        "type": "Point",
        "coordinates": [
          26.234726452416083,
          74.13345346189497
        ]
      }
    },
    {
      "type": "Feature",
      "properties": {
        "norad_id": 30028,
        "name": "FENGYUN 1C DEB",
        "group": "fengyun-1c-debris",
        "lat": 60.87111887596973,
        "lon": -44.63806433584931,
        "alt_km": 821.5432333244562,
        "timestamp": "2025-12-03T19:33:07.249372+00:00",
        "meta_object_name": "FENGYUN 1C DEB",
        "meta_object_id": "1999-025ND",
        "meta_epoch": "2025-12-02T22:06:11.946240",
        "meta_mean_motion": 14.55417828,
        "meta_eccentricity": 0.01741436,
        "meta_inclination": 98.1449,
        "meta_ra_of_asc_node": 329.3822,
        "meta_arg_of_pericenter": 259.0264,
        "meta_mean_anomaly": 162.7045,
        "meta_ephemeris_type": 0,
        "meta_classification_type": "U",
        "meta_norad_cat_id": 30028,
        "meta_element_set_no": 999,
        "meta_rev_at_epoch": 99579,
        "meta_bstar": 0.00064520871,
        "meta_mean_motion_dot": 3.385e-05,
        "meta_mean_motion_ddot": 0,
        "tle_line1": "1 30028U 99025ND  25336.92097160  .00003385  00000+0  64521-3 0  9990",
        "tle_line2": "2 30028  98.1449 329.3822 0174143 259.0264 162.7045 14.55417828995796"
      },
      "geometry": {
        "type": "Point",
        "coordinates": [
          -44.63806433584931,
          60.87111887596973
        ]
      }
    },
    {
      "type": "Feature",
      "properties": {
        "norad_id": 30035,
        "name": "FENGYUN 1C DEB",
        "group": "fengyun-1c-debris",
        "lat": 72.97290904021227,
        "lon": 104.17094908765309,
        "alt_km": 682.1592076177103,
        "timestamp": "2025-12-03T19:33:07.249382+00:00",
        "meta_object_name": "FENGYUN 1C DEB",
        "meta_object_id": "1999-025NL",
        "meta_epoch": "2025-12-03T07:56:01.851936",
        "meta_mean_motion": 14.36967366,
        "meta_eccentricity": 0.0115691,
        "meta_inclination": 99.2699,
        "meta_ra_of_asc_node": 251.421,
        "meta_arg_of_pericenter": 89.1249,
        "meta_mean_anomaly": 31.9853,
        "meta_ephemeris_type": 0,
        "meta_classification_type": "U",
        "meta_norad_cat_id": 30035,
        "meta_element_set_no": 999,
        "meta_rev_at_epoch": 98988,
        "meta_bstar": 0.00010305,
        "meta_mean_motion_dot": 2.77e-06,
        "meta_mean_motion_ddot": 0,
        "tle_line1": "1 30035U 99025NL  25337.33057699  .00000277  00000+0  10305-3 0  9995",
        "tle_line2": "2 30035  99.2699 251.4210 0115691  89.1249  31.9853 14.36967366989880"
      },
      "geometry": {
        "type": "Point",
        "coordinates": [
          104.17094908765309,
          72.97290904021227
        ]
      }
    },
    {
      "type": "Feature",
      "properties": {
        "norad_id": 30036,
        "name": "FENGYUN 1C DEB",
        "group": "fengyun-1c-debris",
        "lat": -78.81963217227874,
        "lon": 137.88474292418962,
        "alt_km": 625.3701547077035,
        "timestamp": "2025-12-03T19:33:07.249392+00:00",
        "meta_object_name": "FENGYUN 1C DEB",
        "meta_object_id": "1999-025NM",
        "meta_epoch": "2025-12-03T02:02:09.917664",
        "meta_mean_motion": 14.4612107,
        "meta_eccentricity": 0.01896117,
        "meta_inclination": 98.2538,
        "meta_ra_of_asc_node": 4.4312,
        "meta_arg_of_pericenter": 237.1928,
        "meta_mean_anomaly": 186.9349,
        "meta_ephemeris_type": 0,
        "meta_classification_type": "U",
        "meta_norad_cat_id": 30036,
        "meta_element_set_no": 999,
        "meta_rev_at_epoch": 99037,
        "meta_bstar": 0.00060260787,
        "meta_mean_motion_dot": 2.638e-05,
        "meta_mean_motion_ddot": 0,
        "tle_line1": "1 30036U 99025NM  25337.08483701  .00002638  00000+0  60261-3 0  9994",
        "tle_line2": "2 30036  98.2538   4.4312 0189611 237.1928 186.9349 14.46121070990375"
      },
      "geometry": {
        "type": "Point",
        "coordinates": [
          137.88474292418962,
          -78.81963217227874
        ]
      }
    },
    {
      "type": "Feature",
      "properties": {
        "norad_id": 30037,
        "name": "FENGYUN 1C DEB",
        "group": "fengyun-1c-debris",
        "lat": -39.13376063240825,
        "lon": -39.31023400687295,
        "alt_km": 847.3566615182217,
        "timestamp": "2025-12-03T19:33:07.249402+00:00",
        "meta_object_name": "FENGYUN 1C DEB",
        "meta_object_id": "1999-025NN",
        "meta_epoch": "2025-12-03T11:56:22.087968",
        "meta_mean_motion": 14.34097835,
        "meta_eccentricity": 0.0174664,
        "meta_inclination": 98.3825,
        "meta_ra_of_asc_node": 313.4915,
        "meta_arg_of_pericenter": 82.4414,
        "meta_mean_anomaly": 43.1163,
        "meta_ephemeris_type": 0,
        "meta_classification_type": "U",
        "meta_norad_cat_id": 30037,
        "meta_element_set_no": 999,
        "meta_rev_at_epoch": 98655,
        "meta_bstar": 0.00025838,
        "meta_mean_motion_dot": 8.12e-06,
        "meta_mean_motion_ddot": 0,
        "tle_line1": "1 30037U 99025NN  25337.49747787  .00000812  00000+0  25838-3 0  9990",
        "tle_line2": "2 30037  98.3825 313.4915 0174664  82.4414  43.1163 14.34097835986552"
      },
      "geometry": {
        "type": "Point",
        "coordinates": [
          -39.31023400687295,
          -39.13376063240825
        ]
      }
    },
    {
      "type": "Feature",
      "properties": {
        "norad_id": 30038,
        "name": "FENGYUN 1C DEB",
        "group": "fengyun-1c-debris",
        "lat": -9.765422700691122,
        "lon": 144.195963708528,
        "alt_km": 670.1299947653506,
        "timestamp": "2025-12-03T19:33:07.249412+00:00",
        "meta_object_name": "FENGYUN 1C DEB",
        "meta_object_id": "1999-025NP",
        "meta_epoch": "2025-12-03T11:06:25.716096",
        "meta_mean_motion": 14.39265198,
        "meta_eccentricity": 0.025784,
        "meta_inclination": 98.3676,
        "meta_ra_of_asc_node": 325.3037,
        "meta_arg_of_pericenter": 130.572,
        "meta_mean_anomaly": 34.5352,
        "meta_ephemeris_type": 0,
        "meta_classification_type": "U",
        "meta_norad_cat_id": 30038,
        "meta_element_set_no": 999,
        "meta_rev_at_epoch": 98757,
        "meta_bstar": 0.00025937,
        "meta_mean_motion_dot": 1.138e-05,
        "meta_mean_motion_ddot": 0,
        "tle_line1": "1 30038U 99025NP  25337.46279764  .00001138  00000+0  25937-3 0  9995",
        "tle_line2": "2 30038  98.3676 325.3037 0257840 130.5720  34.5352 14.39265198987578"
      },
      "geometry": {
        "type": "Point",
        "coordinates": [
          144.195963708528,
          -9.765422700691122
        ]
      }
    }
  ]
}